H1 CPF 01  gfz 2021 02 27 13  5582 tandemx   
H2 1003001  6202 36605    2021 02 27 12 59 42 2021 03 04 00 00 42   120 1 1  0 0 0
H9
10 0 59274  23022.000000  0    6852606.233   -694829.592   -175679.908
10 0 59274  23142.000000  0    6751548.743   -862992.215  -1076438.574
10 0 59274  23262.000000  0    6529821.564  -1013262.332  -1958269.722
10 0 59274  23382.000000  0    6191742.381  -1140956.164  -2805695.021
10 0 59274  23502.000000  0    5743742.918  -1241884.627  -3603871.663
10 0 59274  23622.000000  0    5194235.121  -1312461.045  -4338854.248
10 0 59274  23742.000000  0    4553440.961  -1349794.210  -4997836.358
10 0 59274  23862.000000  0    3833191.297  -1351765.718  -5569368.333
10 0 59274  23982.000000  0    3046697.562  -1317090.295  -6043547.818
10 0 59274  24102.000000  0    2208303.022  -1245357.020  -6412180.086
10 0 59274  24222.000000  0    1333218.966  -1137050.617  -6668908.686
10 0 59274  24342.000000  0     437249.602   -993554.405  -6809314.333
10 0 59274  24462.000000  0    -463489.264   -817134.165  -6830982.827
10 0 59274  24582.000000  0   -1352853.482   -610902.884  -6733541.569
10 0 59274  24702.000000  0   -2214953.393   -378767.024  -6518665.598
10 0 59274  24822.000000  0   -3034431.247   -125354.856  -6190050.694
10 0 59274  24942.000000  0   -3796728.630    144071.623  -5753356.935
10 0 59274  25062.000000  0   -4488344.181    423720.823  -5216122.159
10 0 59274  25182.000000  0   -5097074.715    707389.362  -4587642.800
10 0 59274  25302.000000  0   -5612237.271    988592.446  -3878825.716
10 0 59274  25422.000000  0   -6024866.898   1260705.288  -3102008.463
10 0 59274  25542.000000  0   -6327884.365   1517111.283  -2270751.287
10 0 59274  25662.000000  0   -6516230.320   1751353.664  -1399603.821
10 0 59274  25782.000000  0   -6586962.296   1957288.038   -503849.681
10 0 59274  25902.000000  0   -6539309.934   2129230.696    400767.180
10 0 59274  26022.000000  0   -6374686.040   2262099.100   1298326.512
10 0 59274  26142.000000  0   -6096654.216   2351541.946   2173020.353
10 0 59274  26262.000000  0   -5710852.541   2394054.554   3009440.712
10 0 59274  26382.000000  0   -5224875.825   2387075.890   3792859.117
10 0 59274  26502.000000  0   -4648118.805   2329064.841   4509491.877
10 0 59274  26622.000000  0   -3991585.817   2219554.804   5146744.391
10 0 59274  26742.000000  0   -3267672.859   2059185.442   5693431.645
10 0 59274  26862.000000  0   -2489925.949   1849711.526   6139972.495
10 0 59274  26982.000000  0   -1672779.974   1593987.549   6478553.063
10 0 59274  27102.000000  0    -831285.459   1295928.859   6703256.966
10 0 59274  27222.000000  0      19170.546    960450.835   6810161.376
10 0 59274  27342.000000  0     863145.196    593387.097   6797400.927
10 0 59274  27462.000000  0    1685419.179    201388.119   6665198.056
10 0 59274  27582.000000  0    2471269.882   -208198.468   6415859.725
10 0 59274  27702.000000  0    3206734.934   -627464.836   6053740.947
10 0 59274  27822.000000  0    3878862.641  -1048094.128   5585173.539
10 0 59274  27942.000000  0    4475944.079  -1461524.301   5018360.909
10 0 59274  28062.000000  0    4987722.336  -1859121.432   4363240.361
10 0 59274  28182.000000  0    5405577.002  -2232358.640   3631314.337
10 0 59274  28302.000000  0    5722678.690  -2572998.069   2835450.439
10 0 59274  28422.000000  0    5934107.806  -2873271.112   1989654.079
10 0 59274  28542.000000  0    6036936.613  -3126052.150   1108819.543
10 0 59274  28662.000000  0    6030272.792  -3325022.681    208461.515
10 0 59274  28782.000000  0    5915260.449  -3464819.746   -695566.267
10 0 59274  28902.000000  0    5695040.984  -3541166.218  -1587359.763
10 0 59274  29022.000000  0    5374671.592  -3550977.658  -2451253.227
10 0 59274  29142.000000  0    4961007.344  -3492445.267  -3272100.238
10 0 59274  29262.000000  0    4462548.783  -3365092.362  -4035543.026
10 0 59274  29382.000000  0    3889259.480  -3169803.695  -4728263.498
10 0 59274  29502.000000  0    3252358.310  -2908826.308  -5338211.863
10 0 59274  29622.000000  0    2564092.970  -2585743.113  -5854807.629
10 0 59274  29742.000000  0    1837501.338  -2205422.202  -6269112.543
10 0 59274  29862.000000  0    1086163.344  -1773941.241  -6573975.958
10 0 59274  29982.000000  0     323947.311  -1298487.246  -6764147.514
10 0 59274  30102.000000  0    -435242.480   -787236.648  -6836357.334
10 0 59274  30222.000000  0   -1177713.567   -249216.727  -6789365.286
10 0 59274  30342.000000  0   -1890226.487    305850.094  -6623979.829
10 0 59274  30462.000000  0   -2560225.305    867717.409  -6343044.792
10 0 59274  30582.000000  0   -3176053.897   1425798.799  -5951395.923
10 0 59274  30702.000000  0   -3727156.609   1969362.405  -5455787.376
10 0 59274  30822.000000  0   -4204261.689   2487733.963  -4864787.315
10 0 59274  30942.000000  0   -4599542.453   2970505.287  -4188640.505
10 0 59274  31062.000000  0   -4906751.979   3407742.741  -3439100.534
10 0 59274  31182.000000  0   -5121330.088   3790192.872  -2629234.740
10 0 59274  31302.000000  0   -5240478.868   4109480.448  -1773201.083
10 0 59274  31422.000000  0   -5263204.712   4358293.216   -886002.250
10 0 59274  31542.000000  0   -5190325.231   4530549.262     16780.115
10 0 59274  31662.000000  0   -5024439.410   4621542.516    919265.436
10 0 59274  31782.000000  0   -4769860.800   4628060.427   1805562.966
10 0 59274  31902.000000  0   -4432515.427   4548471.385   2660060.998
10 0 59274  32022.000000  0   -4019806.942   4382780.523   3467710.083
10 0 59274  32142.000000  0   -3540453.390   4132651.822   4214294.424
10 0 59274  32262.000000  0   -3004300.517   3801396.301   4886685.807
10 0 59274  32382.000000  0   -2422115.471   3393926.944   5473076.059
10 0 59274  32502.000000  0   -1805365.690   2916681.516   5963182.588
10 0 59274  32622.000000  0   -1165988.626   2377515.559   6348424.301
10 0 59274  32742.000000  0    -516157.803   1785567.665   6622064.637
10 0 59274  32862.000000  0     131948.458   1151101.753   6779322.959
10 0 59274  32982.000000  0     766375.310    485327.175   6817453.358
10 0 59274  33102.000000  0    1375610.998   -199799.132   6735789.000
10 0 59274  33222.000000  0    1948794.748   -891786.582   6535753.861
10 0 59274  33342.000000  0    2475910.066  -1577838.209   6220839.687
10 0 59274  33462.000000  0    2947961.026  -2245086.682   5796549.921
10 0 59274  33582.000000  0    3357128.713  -2880836.757   5270308.791
10 0 59274  33702.000000  0    3696904.084  -3472808.804   4651337.391
10 0 59274  33822.000000  0    3962195.822  -4009379.685   3950497.470
10 0 59274  33942.000000  0    4149410.452  -4479815.962   3180104.038
10 0 59274  34062.000000  0    4256502.407  -4874494.190   2353709.913
10 0 59274  34182.000000  0    4282993.250  -5185102.765   1485864.900
10 0 59274  34302.000000  0    4229958.446  -5404819.905    591854.295
10 0 59274  34422.000000  0    4099981.694  -5528462.681   -312577.483
10 0 59274  34542.000000  0    3897079.861  -5552604.987  -1211511.823
10 0 59274  34662.000000  0    3626597.652  -5475660.233  -2089145.915
10 0 59274  34782.000000  0    3295076.114  -5297925.672  -2930077.644
10 0 59274  34902.000000  0    2910099.210  -5021589.157  -3719581.517
10 0 59274  35022.000000  0    2480120.951  -4650697.739  -4443868.506
10 0 59274  35142.000000  0    2014278.705  -4191090.001  -5090324.659
10 0 59274  35262.000000  0    1522198.708  -3650293.946  -5647724.105
10 0 59274  35382.000000  0    1013798.111  -3037395.283  -6106414.179
10 0 59274  35502.000000  0     499086.405  -2362879.127  -6458472.002
10 0 59274  35622.000000  0     -12029.453  -1638446.814  -6697830.384
10 0 59274  35742.000000  0    -509931.608   -876811.897  -6820371.828
10 0 59274  35862.000000  0    -985467.009    -91479.235  -6823991.417
10 0 59274  35982.000000  0   -1430111.415    703489.342  -6708628.169
10 0 59274  36102.000000  0   -1836118.668   1493720.079  -6476265.621
10 0 59274  36222.000000  0   -2196652.353   2264780.655  -6130901.267
10 0 59274  36342.000000  0   -2505900.024   3002437.910  -5678486.402
10 0 59274  36462.000000  0   -2759167.492   3692918.129  -5126834.080
10 0 59274  36582.000000  0   -2952952.124   4323164.792  -4485496.261
10 0 59274  36702.000000  0   -3084993.455   4881089.502  -3765608.611
10 0 59274  36822.000000  0   -3154298.365   5355809.047  -2979705.038
10 0 59274  36942.000000  0   -3161141.286   5737864.499  -2141507.123
10 0 59274  37062.000000  0   -3107039.771   6019419.785  -1265688.198
10 0 59274  37182.000000  0   -2994702.804   6194430.931   -367614.614
10 0 59274  37302.000000  0   -2827955.684   6258781.286    536926.812
10 0 59274  37422.000000  0   -2611642.691   6210382.741   1432014.513
10 0 59274  37542.000000  0   -2351505.283   6049233.096   2301884.140
10 0 59274  37662.000000  0   -2054042.300   5777429.420   3131215.191
10 0 59274  37782.000000  0   -1726356.923   5399139.844   3905407.369
10 0 59274  37902.000000  0   -1375993.885   4920534.652   4610842.280
10 0 59274  38022.000000  0   -1010770.081   4349677.778   5235125.575
10 0 59274  38142.000000  0    -638602.252   3696381.706   5767303.439
10 0 59274  38262.000000  0    -267338.522   2972030.501   6198051.324
10 0 59274  38382.000000  0      95404.857   2189373.548   6519831.790
10 0 59274  38502.000000  0     442397.553   1362296.699   6727020.331
10 0 59274  38622.000000  0     766937.774    505572.432   6815998.227
10 0 59274  38742.000000  0    1062980.240   -365404.187   6785210.797
10 0 59274  38862.000000  0    1325247.942  -1234891.168   6635194.034
10 0 59274  38982.000000  0    1549326.246  -2087083.847   6368566.134
10 0 59274  39102.000000  0    1731737.585  -2906402.178   5989985.315
10 0 59274  39222.000000  0    1869995.689  -3677777.583   5506073.196
10 0 59274  39342.000000  0    1962638.144  -4386933.297   4925303.832
10 0 59274  39462.000000  0    2009237.467  -5020652.511   4257861.011
99
